#cP2019  3 27  0  0  0.00000000      96   u+U IGb08 FIT  WHU
## 2046 259200.00000000   900.00000000 58569     0.000000000
+  108   G01G02G03G05G06G07G08G09G10G11G12G13G14G15G16G17G18
+        G19G20G21G22G23G24G25G26G27G28G29G30G31G32R01R02R03
+        R04R05R07R08R09R10R11R13R14R15R16R17R18R19R20R21R22
+        R23R24E01E02E03E04E05E07E08E09E11E12E14E18E19E21E24
+        E25E26E27E30E31E33E36C01C02C03C04C05C06C07C08C09C10
+        C11C12C13C14C16C18C20C21C22C24C25C26C27C28C29C30C33
+        C34C36J01J02J03J07  0  0  0  0  0  0  0  0  0  0  0
+          0  0  0  0  0  0  0  0  0  0  0  0  0  0  0  0  0
+          0  0  0  0  0  0  0  0  0  0  0  0  0  0  0  0  0
+          0  0  0  0  0  0  0  0  0  0  0  0  0  0  0  0  0
++         3  3  2  3  3  3  3  2  3  3  3  3  3  3  3  3  3
++         4  3  3  3  2  3  3  3  3  3  4  3  3  3  4  3  3
++         3  3  3  3  3  3  3  2  2  2  3  3  3  4  3  3  3
++         3  3  9  9  9  9  9  9  9  9  9  9  0  0  9  9  9
++         9  9  9  9  9  9  9  0  9 10 10  0  9  8  9 10  9
++        10 10  9  8 10 10 10 10 10 10  9 10 10 10 10  0 10
++         0  0 10  8  9  0  0  0  0  0  0  0  0  0  0  0  0
++         0  0  0  0  0  0  0  0  0  0  0  0  0  0  0  0  0
++         0  0  0  0  0  0  0  0  0  0  0  0  0  0  0  0  0
++         0  0  0  0  0  0  0  0  0  0  0  0  0  0  0  0  0
%c M  cc GPS ccc cccc cccc cccc cccc ccccc ccccc ccccc ccccc
%c cc cc ccc ccc cccc cccc cccc cccc ccccc ccccc ccccc ccccc
%f  1.2500000  1.025000000  0.00000000000  0.000000000000000
%f  0.0000000  0.000000000  0.00000000000  0.000000000000000
%i    0    0    0    0      0      0      0      0         0
%i    0    0    0    0      0      0      0      0         0
/* GNSS RESEARCH CENTER, WUHAN UNIVERSITY (WHU), P. R. CHINA
/* POSITION AND NAVIGATION DATA ANALYST (PANDA) SOFTWARE    
/* PCV:IGS08_2044 OL/AL:FES2004  NONE     NN ORB:CoM CLK:CoN
/*
*  2019  3 27 13  0  0.00000000
PG01 -19320.773217  -9045.239965  15849.839155   -189.212667
PG02  13822.242624  22456.300119   4462.068442   -174.047910
PG03 -16349.182594    640.028477  20870.644483    187.387572
PG05   6194.063515  18356.014478 -18197.566183      1.180835
PG06   4019.597228  22228.942363  13989.269861    245.351264
PG07 -14635.200278   5252.182410 -21325.610208      6.862676
PG08 -22420.290692  -6551.635100 -12792.896101   -137.699110
PG09 -23568.127405   8627.404614  -8755.383977    438.679347
PG10  10915.182478 -24093.970403    364.796971     87.574330
PG11 -24197.039198  -8046.176763   6445.192347   -637.638062
PG12  15442.104427   1402.604428  21324.418259    256.538411
PG13  15366.569566  12713.955402 -17674.665859    -70.139744
PG14    874.231710 -15352.523533  21963.119530    -86.788126
PG15  23968.218185   4279.140365 -11324.964427   -321.472068
PG16  -5291.897670 -17046.350607 -19695.227193    -28.330520
PG17 -11036.134331  13804.677737  20205.168589     29.789331
PG18 -19351.895142 -16566.495065   7278.868221     38.664982
PG19  -2021.425062  14555.251547  21832.529146   -337.570168
PG20  14276.974278 -20130.473599  -9730.767402    523.471335
PG21  10838.447643 -10635.457850 -20997.601790   -224.335472
PG22 -14117.645071  -7866.614978  21318.266789   -672.385057
PG23 -26659.868774    791.413344   2765.884076   -192.493389
PG24  20505.976176  11652.177344  12376.227595    -63.965703
PG25  17502.715740 -11545.185799  15939.847466   -738.380087
PG26   1448.950738 -23785.735622 -11556.684457    160.251165
PG27 -13184.462902 -12174.877499 -19776.947929    -95.086677
PG28 -13140.875997  23137.810687    428.809944    766.864304
PG29  26015.821430  -3363.967870  -4197.768128    239.660670
PG30  -6544.689115  16473.871279 -19709.511981    -75.797155
PG31  -4183.956821 -22668.856698  12788.837813     49.240255
PG32   7350.187697 -15208.242296  20519.471795   -160.993330
PR01   8696.642887   7216.935215 -22864.803344     41.442514
PR02  20673.579895  -8341.697216 -12308.914069    360.801154
PR03  18352.404607 -16972.551156   5003.661483     -7.155376
PR04   4902.924067 -15516.031209  19655.554230    300.139448
PR05 -10440.994034  -5409.619992  22649.597886     24.918887
PR07 -18211.423294  17053.319188  -5366.288923    -17.204161
PR08  -5665.380198  15779.436135 -19173.832400     18.495124
PR09 -10950.845067   2264.661923 -22915.844213     61.284088
PR10  -5993.984585  17814.140461 -17230.823784     46.273880
PR11   2908.460576  25315.632171   -488.347665    -61.023493
PR13  10880.203794   -672.711433  23038.190716    -21.718082
PR14   5962.263681 -18025.157985  17045.997807     37.318597
PR15  -2454.982924 -25347.769458   1414.321567    100.921219
PR16  -9945.258377 -17829.506171 -15240.174184     10.560089
PR17  12186.411897  -5639.344420 -21680.792410    215.476731
PR18  -5235.019945 -12796.350778 -21433.664003     38.424744
PR19 -19424.488916 -13472.823388  -9585.784982    -22.210451
PR20 -22972.945296  -5653.272209   9618.153120   -373.066744
PR21 -11567.362458   5932.997755  21947.736217    -38.951783
PR22   7630.002726  13280.212208  20363.974601    -11.520183
PR23  22133.741152  11782.513827   4657.501711    217.959763
PR24  22555.451630   4225.536609 -11135.293062   -178.666979
PE01 -12236.038476 -17335.553200 -20641.970716   -570.881555
PE02  12245.673420  17310.249749  20653.047122     53.402889
PE03  18589.333622   8139.267682 -21550.260642   -148.437813
PE04 -27702.405328   7060.501280   7685.325739   -248.883577
PE05  -1503.160153  18696.280026 -22895.490459     84.576871
PE07  20613.516778 -18271.972930  10853.268477   -157.055245
PE08  27630.190157  -7410.060305  -7622.417915   6382.181381
PE09 -20474.437176  18375.829125 -10898.224616   6487.749162
PE11 -10720.740920  12532.369921  24583.112105   5712.747213
PE12 -24651.365988  -3801.735340  15967.010212   6465.326858
PE14 -13787.144957 -18296.122134 -22665.340749   -506.313823
PE18  17478.599272  10543.757806  12949.407493   -606.158806
PE19 -16884.202406  -9388.065369  22433.197915     -7.366705
PE21   -807.768579 -29217.002202  -4682.257492   -526.020013
PE24 -11009.876862  23935.102985 -13531.652288   6163.857243
PE25    766.262050  29228.410482   4620.557340   1852.966544
PE26  -9056.981605 -21219.589267 -18535.592520   4751.028668
PE27  11043.676438 -23684.452679  13893.944921    502.216860
PE30  16443.999644  -4593.544108  24164.267367   4999.573423
PE31 -16388.212728   4271.620355 -24275.924541    872.601810
PE33 -23961.521118 -17310.973727  -1650.155053    848.037581
PE36   9320.002046  21041.723265  18620.869663    731.594517
PC01 -32279.561462  27112.968872    220.256470    383.179728
PC02   4362.308571  41955.931208    421.763897   -402.858533
PC03 -14781.966239  39484.079107    568.709704     17.455698
PC04 -39615.444636  14407.440576    605.401603     30.910247
PC05  21830.122014  36064.125973    227.230193   -167.528147
PC06 -23325.148798  23988.032960 -25545.530891    591.491808
PC07 -15525.276496  38189.318967  -7455.604784     74.515059
PC08  -6821.164070  23406.342078  34542.737537    136.157056
PC09  -7317.355104  25138.859179 -32916.740725    638.508635
PC10  -6281.728861  41238.511822   4638.862066   -610.750181
PC11  21365.413677  -6427.958871 -16738.178546    -71.587009
PC12  24167.468622  11108.393442   8635.519378    526.283286
PC13   6015.575504  31918.091502  27075.769712   -617.471598
PC14  21926.704803  -9346.249655 -14408.811016    727.447697
PC16 -18447.639131  24896.932530 -28675.467522   -441.454081
PC18  -2622.115192  41712.293116  -3767.304874    -33.951939
PC20 -22025.669837  10633.093729  13436.062964    277.501525
PC21  14530.987519   7449.298442 -22608.337815    450.408003
PC22  -1411.063052  20887.543050 -18426.846096    334.526265
PC24  16251.612041  -1444.652171  22631.082955   -546.508231
PC25   6314.464996 -20526.117226  17806.598256   -164.376977
PC26  16523.689039  17229.747929  14470.343366    183.254781
PC27 -23893.306076 -11703.814943  -8471.733405     87.340460
PC28  -7355.463496 -16766.175621 -21053.720130     85.853585
PC29 -12905.312636  12560.021680  21317.149560     41.469526
PC30 -26423.437676   1117.704453   8948.659988     95.407458
PC33  16479.776387 -22276.472658   3390.034228    -65.376173
PC34  26343.932200  -1152.535584  -9090.734039    324.482641
PC36  -6864.728465  20274.598524 -17882.086666   -223.544730
PJ01 -32337.294661  27073.691095   6213.511276   -337.369174
PJ02 -19052.138100  26861.446406 -21982.523095      0.677753
PJ03 -29936.805872  25209.106369  20762.734900     -0.332985
PJ07 -25355.270612  33692.985167    -30.412061     -0.021634
EOF
